MMS 1                   
1 40482U 15011A   26117.58334491 -.00000502  00000+0  00000+0 0  9996
2 40482  71.4220 349.4837 8364697 166.3335 176.4276  0.28347714  1352
MMS 2                   
1 40483U 15011B   26117.58334491 -.00000502  00000+0  00000+0 0  9997
2 40483  71.4220 349.4837 8364697 166.3335 176.4276  0.28347714  1353
MMS 3                   
1 40484U 15011C   26117.58334491 -.00000502  00000+0  00000+0 0  9998
2 40484  71.4233 349.4886 8363740 166.3282 176.4250  0.28347459  1359
MMS 4                   
1 40485U 15011D   26117.58334491 -.00000502  00000+0  00000+0 0  9999
2 40485  71.4203 349.4840 8363295 166.3358 176.4126  0.28347446  1354
EXPRESS-AM7             
1 40505U 15012A   26117.31225475  .00000141  00000+0  00000+0 0  9993
2 40505   0.0241  67.7738 0002993 324.3401 335.6045  1.00274391 40491
BEIDOU-3S IGSO-1S       
1 40549U 15019A   26112.98991377 -.00000171  00000+0  00000+0 0  9991
2 40549  49.2998 296.1212 0037208 189.9963 176.4804  1.00261100 40525
THOR 7                  
1 40613U 15022A   26117.22267126 -.00000019  00000+0  00000+0 0  9998
2 40613   0.0459  86.1413 0002802 303.4883 265.1021  1.00270445 40305
TURKMENALEM52E/MONACOSAT
1 40617U 15023A   26117.19489046  .00000000  00000+0  00000+0 0  9995
2 40617   0.0225  94.4648 0003192 306.1794 296.7206  1.00272383 40337
DIRECTV 15              
1 40663U 15026A   26117.48690759 -.00000112  00000+0  00000+0 0  9991
2 40663   0.0291  74.9055 0000365 122.3866  90.5923  1.00270914 39953
SKY MEXICO-1            
1 40664U 15026B   26117.47924867 -.00000244  00000+0  00000+0 0  9997
2 40664   0.0175 264.3713 0001899 127.5691 277.2433  1.00273360 39944
METEOSAT-11 (MSG-4)     
1 40732U 15034A   26117.11503289  .00000055  00000+0  00000+0 0  9993
2 40732   3.0740  71.3738 0001589 344.8606 209.8520  1.00264233  6705
STAR ONE C4             
1 40733U 15034B   26116.33516741  .00000000  00000+0  00000+0 0  9994
2 40733   0.0174  23.8120 0002649   2.7842 238.4124  1.00268250 39494
WGS F7 (USA 263)        
1 40746U 15036A   26117.46232014  .00000008  00000+0  00000+0 0  9991
2 40746   0.0148 267.8301 0000539 204.7119  84.3429  1.00271811 39366
ARIANE 2 DEB            
1 40787U 89006CG  26116.63409867 -.00000085  00000+0 -31871-3 0  9995
2 40787   7.8802 269.0496 7121376  62.4074 354.9659  2.25294834102282
CZ-3A DEB               
1 40813U 07003AS  26116.97815484  .00000175  00000+0  38938-2 0  9993
2 40813  27.0090  70.2081 7658085 175.3303 202.7604  1.72467387 83585
CZ-3B DEB               
1 40814U 10042X   26114.43388912 -.00000013  00000+0  23836-2 0  9994
2 40814  26.0470 169.6726 7357610 139.0231 309.6527  1.90411960 79743
CZ-3B DEB               
1 40815U 10042Y   26116.46858470 -.00000081  00000+0  68583-2 0  9994
2 40815  25.9847 147.3851 7322925 192.6227 126.7522  1.91047542  5792
