[{"OBJECT_NAME":"MMS 1","OBJECT_ID":"2015-011A","EPOCH":"2026-04-27T14:00:01.000224","MEAN_MOTION":0.28347714,"ECCENTRICITY":0.8364697,"INCLINATION":71.422,"RA_OF_ASC_NODE":349.4837,"ARG_OF_PERICENTER":166.3335,"MEAN_ANOMALY":176.4276,"EPHEMERIS_TYPE":0,"CLASSIFICATION_TYPE":"U","NORAD_CAT_ID":40482,"ELEMENT_SET_NO":999,"REV_AT_EPOCH":135,"BSTAR":0,"MEAN_MOTION_DOT":-5.02e-6,"MEAN_MOTION_DDOT":0},{"OBJECT_NAME":"MMS 2","OBJECT_ID":"2015-011B","EPOCH":"2026-04-27T14:00:01.000224","MEAN_MOTION":0.28347714,"ECCENTRICITY":0.8364697,"INCLINATION":71.422,"RA_OF_ASC_NODE":349.4837,"ARG_OF_PERICENTER":166.3335,"MEAN_ANOMALY":176.4276,"EPHEMERIS_TYPE":0,"CLASSIFICATION_TYPE":"U","NORAD_CAT_ID":40483,"ELEMENT_SET_NO":999,"REV_AT_EPOCH":135,"BSTAR":0,"MEAN_MOTION_DOT":-5.02e-6,"MEAN_MOTION_DDOT":0},{"OBJECT_NAME":"MMS 3","OBJECT_ID":"2015-011C","EPOCH":"2026-04-27T14:00:01.000224","MEAN_MOTION":0.28347459,"ECCENTRICITY":0.836374,"INCLINATION":71.4233,"RA_OF_ASC_NODE":349.4886,"ARG_OF_PERICENTER":166.3282,"MEAN_ANOMALY":176.425,"EPHEMERIS_TYPE":0,"CLASSIFICATION_TYPE":"U","NORAD_CAT_ID":40484,"ELEMENT_SET_NO":999,"REV_AT_EPOCH":135,"BSTAR":0,"MEAN_MOTION_DOT":-5.02e-6,"MEAN_MOTION_DDOT":0},{"OBJECT_NAME":"MMS 4","OBJECT_ID":"2015-011D","EPOCH":"2026-04-27T14:00:01.000224","MEAN_MOTION":0.28347446,"ECCENTRICITY":0.8363295,"INCLINATION":71.4203,"RA_OF_ASC_NODE":349.484,"ARG_OF_PERICENTER":166.3358,"MEAN_ANOMALY":176.4126,"EPHEMERIS_TYPE":0,"CLASSIFICATION_TYPE":"U","NORAD_CAT_ID":40485,"ELEMENT_SET_NO":999,"REV_AT_EPOCH":135,"BSTAR":0,"MEAN_MOTION_DOT":-5.02e-6,"MEAN_MOTION_DDOT":0},{"OBJECT_NAME":"EXPRESS-AM7","OBJECT_ID":"2015-012A","EPOCH":"2026-04-27T07:29:38.810400","MEAN_MOTION":1.00274391,"ECCENTRICITY":0.0002993,"INCLINATION":0.0241,"RA_OF_ASC_NODE":67.7738,"ARG_OF_PERICENTER":324.3401,"MEAN_ANOMALY":335.6045,"EPHEMERIS_TYPE":0,"CLASSIFICATION_TYPE":"U","NORAD_CAT_ID":40505,"ELEMENT_SET_NO":999,"REV_AT_EPOCH":4049,"BSTAR":0,"MEAN_MOTION_DOT":1.41e-6,"MEAN_MOTION_DDOT":0},{"OBJECT_NAME":"BEIDOU-3S IGSO-1S","OBJECT_ID":"2015-019A","EPOCH":"2026-04-22T23:45:28.549728","MEAN_MOTION":1.002611,"ECCENTRICITY":0.0037208,"INCLINATION":49.2998,"RA_OF_ASC_NODE":296.1212,"ARG_OF_PERICENTER":189.9963,"MEAN_ANOMALY":176.4804,"EPHEMERIS_TYPE":0,"CLASSIFICATION_TYPE":"U","NORAD_CAT_ID":40549,"ELEMENT_SET_NO":999,"REV_AT_EPOCH":4052,"BSTAR":0,"MEAN_MOTION_DOT":-1.71e-6,"MEAN_MOTION_DDOT":0},{"OBJECT_NAME":"THOR 7","OBJECT_ID":"2015-022A","EPOCH":"2026-04-27T05:20:38.796864","MEAN_MOTION":1.00270445,"ECCENTRICITY":0.0002802,"INCLINATION":0.0459,"RA_OF_ASC_NODE":86.1413,"ARG_OF_PERICENTER":303.4883,"MEAN_ANOMALY":265.1021,"EPHEMERIS_TYPE":0,"CLASSIFICATION_TYPE":"U","NORAD_CAT_ID":40613,"ELEMENT_SET_NO":999,"REV_AT_EPOCH":4030,"BSTAR":0,"MEAN_MOTION_DOT":-1.9e-7,"MEAN_MOTION_DDOT":0},{"OBJECT_NAME":"TURKMENALEM52E/MONACOSAT","OBJECT_ID":"2015-023A","EPOCH":"2026-04-27T04:40:38.535744","MEAN_MOTION":1.00272383,"ECCENTRICITY":0.00031926,"INCLINATION":0.0225,"RA_OF_ASC_NODE":94.4648,"ARG_OF_PERICENTER":306.1794,"MEAN_ANOMALY":296.7206,"EPHEMERIS_TYPE":0,"CLASSIFICATION_TYPE":"U","NORAD_CAT_ID":40617,"ELEMENT_SET_NO":999,"REV_AT_EPOCH":4033,"BSTAR":0,"MEAN_MOTION_DOT":0,"MEAN_MOTION_DDOT":0},{"OBJECT_NAME":"DIRECTV 15","OBJECT_ID":"2015-026A","EPOCH":"2026-04-27T11:41:08.815776","MEAN_MOTION":1.00270914,"ECCENTRICITY":3.65e-5,"INCLINATION":0.0291,"RA_OF_ASC_NODE":74.9055,"ARG_OF_PERICENTER":122.3866,"MEAN_ANOMALY":90.5923,"EPHEMERIS_TYPE":0,"CLASSIFICATION_TYPE":"U","NORAD_CAT_ID":40663,"ELEMENT_SET_NO":999,"REV_AT_EPOCH":3995,"BSTAR":0,"MEAN_MOTION_DOT":-1.12e-6,"MEAN_MOTION_DDOT":0},{"OBJECT_NAME":"SKY MEXICO-1","OBJECT_ID":"2015-026B","EPOCH":"2026-04-27T11:30:07.085088","MEAN_MOTION":1.0027336,"ECCENTRICITY":0.0001899,"INCLINATION":0.0175,"RA_OF_ASC_NODE":264.3713,"ARG_OF_PERICENTER":127.5691,"MEAN_ANOMALY":277.2433,"EPHEMERIS_TYPE":0,"CLASSIFICATION_TYPE":"U","NORAD_CAT_ID":40664,"ELEMENT_SET_NO":999,"REV_AT_EPOCH":3994,"BSTAR":0,"MEAN_MOTION_DOT":-2.44e-6,"MEAN_MOTION_DDOT":0},{"OBJECT_NAME":"METEOSAT-11 (MSG-4)","OBJECT_ID":"2015-034A","EPOCH":"2026-04-27T02:45:38.841696","MEAN_MOTION":1.00264233,"ECCENTRICITY":0.00015891,"INCLINATION":3.074,"RA_OF_ASC_NODE":71.3738,"ARG_OF_PERICENTER":344.8606,"MEAN_ANOMALY":209.852,"EPHEMERIS_TYPE":0,"CLASSIFICATION_TYPE":"U","NORAD_CAT_ID":40732,"ELEMENT_SET_NO":999,"REV_AT_EPOCH":670,"BSTAR":0,"MEAN_MOTION_DOT":5.5e-7,"MEAN_MOTION_DDOT":0},{"OBJECT_NAME":"STAR ONE C4","OBJECT_ID":"2015-034B","EPOCH":"2026-04-26T08:02:38.464224","MEAN_MOTION":1.0026825,"ECCENTRICITY":0.00026492,"INCLINATION":0.0174,"RA_OF_ASC_NODE":23.812,"ARG_OF_PERICENTER":2.7842,"MEAN_ANOMALY":238.4124,"EPHEMERIS_TYPE":0,"CLASSIFICATION_TYPE":"U","NORAD_CAT_ID":40733,"ELEMENT_SET_NO":999,"REV_AT_EPOCH":3949,"BSTAR":0,"MEAN_MOTION_DOT":0,"MEAN_MOTION_DDOT":0},{"OBJECT_NAME":"WGS F7 (USA 263)","OBJECT_ID":"2015-036A","EPOCH":"2026-04-27T11:05:44.460096","MEAN_MOTION":1.00271811,"ECCENTRICITY":5.39e-5,"INCLINATION":0.0148,"RA_OF_ASC_NODE":267.8301,"ARG_OF_PERICENTER":204.7119,"MEAN_ANOMALY":84.3429,"EPHEMERIS_TYPE":0,"CLASSIFICATION_TYPE":"U","NORAD_CAT_ID":40746,"ELEMENT_SET_NO":999,"REV_AT_EPOCH":3936,"BSTAR":0,"MEAN_MOTION_DOT":8.0e-8,"MEAN_MOTION_DDOT":0},{"OBJECT_NAME":"ARIANE 2 DEB","OBJECT_ID":"1989-006CG","EPOCH":"2026-04-26T15:13:06.125088","MEAN_MOTION":2.25294834,"ECCENTRICITY":0.71213765,"INCLINATION":7.8802,"RA_OF_ASC_NODE":269.0496,"ARG_OF_PERICENTER":62.4074,"MEAN_ANOMALY":354.9659,"EPHEMERIS_TYPE":0,"CLASSIFICATION_TYPE":"U","NORAD_CAT_ID":40787,"ELEMENT_SET_NO":999,"REV_AT_EPOCH":10228,"BSTAR":-0.00031870868,"MEAN_MOTION_DOT":-8.5e-7,"MEAN_MOTION_DDOT":0},{"OBJECT_NAME":"CZ-3A DEB","OBJECT_ID":"2007-003AS","EPOCH":"2026-04-26T23:28:32.578176","MEAN_MOTION":1.72467387,"ECCENTRICITY":0.7658085,"INCLINATION":27.009,"RA_OF_ASC_NODE":70.2081,"ARG_OF_PERICENTER":175.3303,"MEAN_ANOMALY":202.7604,"EPHEMERIS_TYPE":0,"CLASSIFICATION_TYPE":"U","NORAD_CAT_ID":40813,"ELEMENT_SET_NO":999,"REV_AT_EPOCH":8358,"BSTAR":0.0038937529,"MEAN_MOTION_DOT":1.75e-6,"MEAN_MOTION_DDOT":0},{"OBJECT_NAME":"CZ-3B DEB","OBJECT_ID":"2010-042X","EPOCH":"2026-04-24T10:24:48.019968","MEAN_MOTION":1.9041196,"ECCENTRICITY":0.73576104,"INCLINATION":26.047,"RA_OF_ASC_NODE":169.6726,"ARG_OF_PERICENTER":139.0231,"MEAN_ANOMALY":309.6527,"EPHEMERIS_TYPE":0,"CLASSIFICATION_TYPE":"U","NORAD_CAT_ID":40814,"ELEMENT_SET_NO":999,"REV_AT_EPOCH":7974,"BSTAR":0.0023835859,"MEAN_MOTION_DOT":-1.3e-7,"MEAN_MOTION_DDOT":0},{"OBJECT_NAME":"CZ-3B DEB","OBJECT_ID":"2010-042Y","EPOCH":"2026-04-26T11:14:45.718080","MEAN_MOTION":1.91047542,"ECCENTRICITY":0.73229251,"INCLINATION":25.9847,"RA_OF_ASC_NODE":147.3851,"ARG_OF_PERICENTER":192.6227,"MEAN_ANOMALY":126.7522,"EPHEMERIS_TYPE":0,"CLASSIFICATION_TYPE":"U","NORAD_CAT_ID":40815,"ELEMENT_SET_NO":999,"REV_AT_EPOCH":579,"BSTAR":0.0068583165,"MEAN_MOTION_DOT":-8.1e-7,"MEAN_MOTION_DDOT":0}]
